CCSDS_OMM_VERS = 2.0
CREATION_DATE  = 
ORIGINATOR     = 

OBJECT_NAME    = SL-3 R/B
OBJECT_ID      = 1982-079B
CENTER_NAME    = EARTH
REF_FRAME      = TEME
TIME_SYSTEM    = UTC
MEAN_ELEMENT_THEORY = SGP/SGP4

EPOCH          = 2026-01-26T11:05:54.864384
MEAN_MOTION    = 15.24195159
ECCENTRICITY   = .0024525
INCLINATION    = 81.1448
RA_OF_ASC_NODE = 242.9214
ARG_OF_PERICENTER = 310.9523
MEAN_ANOMALY   = 48.9587

EPHEMERIS_TYPE = 0
CLASSIFICATION_TYPE = U
NORAD_CAT_ID   = 13403
ELEMENT_SET_NO = 999
REV_AT_EPOCH   = 37126
BSTAR          = .29762E-3
MEAN_MOTION_DOT = .7336E-4
MEAN_MOTION_DDOT = 0

CCSDS_OMM_VERS = 2.0
CREATION_DATE  = 
ORIGINATOR     = 

OBJECT_NAME    = SL-14 R/B
OBJECT_ID      = 1982-092B
CENTER_NAME    = EARTH
REF_FRAME      = TEME
TIME_SYSTEM    = UTC
MEAN_ELEMENT_THEORY = SGP/SGP4

EPOCH          = 2026-01-26T12:14:01.452192
MEAN_MOTION    = 14.86613589
ECCENTRICITY   = .0021851
INCLINATION    = 82.5685
RA_OF_ASC_NODE = 180.8396
ARG_OF_PERICENTER = 81.8406
MEAN_ANOMALY   = 342.7347

EPHEMERIS_TYPE = 0
CLASSIFICATION_TYPE = U
NORAD_CAT_ID   = 13553
ELEMENT_SET_NO = 999
REV_AT_EPOCH   = 32266
BSTAR          = .10454E-3
MEAN_MOTION_DOT = .956E-5
MEAN_MOTION_DDOT = 0

CCSDS_OMM_VERS = 2.0
CREATION_DATE  = 
ORIGINATOR     = 

OBJECT_NAME    = SL-3 R/B
OBJECT_ID      = 1983-010B
CENTER_NAME    = EARTH
REF_FRAME      = TEME
TIME_SYSTEM    = UTC
MEAN_ELEMENT_THEORY = SGP/SGP4

EPOCH          = 2026-01-26T11:38:25.992384
MEAN_MOTION    = 15.44872346
ECCENTRICITY   = .001685
INCLINATION    = 81.1023
RA_OF_ASC_NODE = 53.9390
ARG_OF_PERICENTER = 188.8263
MEAN_ANOMALY   = 171.2688

EPHEMERIS_TYPE = 0
CLASSIFICATION_TYPE = U
NORAD_CAT_ID   = 13819
ELEMENT_SET_NO = 999
REV_AT_EPOCH   = 35142
BSTAR          = .38635E-3
MEAN_MOTION_DOT = .18276E-3
MEAN_MOTION_DDOT = 0

CCSDS_OMM_VERS = 2.0
CREATION_DATE  = 
ORIGINATOR     = 

OBJECT_NAME    = SL-3 R/B
OBJECT_ID      = 1983-075B
CENTER_NAME    = EARTH
REF_FRAME      = TEME
TIME_SYSTEM    = UTC
MEAN_ELEMENT_THEORY = SGP/SGP4

EPOCH          = 2026-01-26T10:59:55.107744
MEAN_MOTION    = 15.37269058
ECCENTRICITY   = .00231
INCLINATION    = 97.6128
RA_OF_ASC_NODE = 29.4832
ARG_OF_PERICENTER = 25.8162
MEAN_ANOMALY   = 334.4229

EPHEMERIS_TYPE = 0
CLASSIFICATION_TYPE = U
NORAD_CAT_ID   = 14208
ELEMENT_SET_NO = 999
REV_AT_EPOCH   = 32366
BSTAR          = .43496E-3
MEAN_MOTION_DOT = .15949E-3
MEAN_MOTION_DDOT = 0

CCSDS_OMM_VERS = 2.0
CREATION_DATE  = 
ORIGINATOR     = 

OBJECT_NAME    = COSMOS 1536
OBJECT_ID      = 1984-013A
CENTER_NAME    = EARTH
REF_FRAME      = TEME
TIME_SYSTEM    = UTC
MEAN_ELEMENT_THEORY = SGP/SGP4

EPOCH          = 2026-01-26T10:08:36.394944
MEAN_MOTION    = 15.23212804
ECCENTRICITY   = .001568
INCLINATION    = 82.5467
RA_OF_ASC_NODE = 149.8324
ARG_OF_PERICENTER = 73.5002
MEAN_ANOMALY   = 286.7956

EPHEMERIS_TYPE = 0
CLASSIFICATION_TYPE = U
NORAD_CAT_ID   = 14699
ELEMENT_SET_NO = 999
REV_AT_EPOCH   = 26618
BSTAR          = .41731E-3
MEAN_MOTION_DOT = .994E-4
MEAN_MOTION_DDOT = 0

CCSDS_OMM_VERS = 2.0
CREATION_DATE  = 
ORIGINATOR     = 

OBJECT_NAME    = SL-14 R/B
OBJECT_ID      = 1984-027B
CENTER_NAME    = EARTH
REF_FRAME      = TEME
TIME_SYSTEM    = UTC
MEAN_ELEMENT_THEORY = SGP/SGP4

EPOCH          = 2026-01-26T04:51:45.000288
MEAN_MOTION    = 14.85931852
ECCENTRICITY   = .0019408
INCLINATION    = 82.5422
RA_OF_ASC_NODE = 284.8657
ARG_OF_PERICENTER = 112.1434
MEAN_ANOMALY   = 248.1845

EPHEMERIS_TYPE = 0
CLASSIFICATION_TYPE = U
NORAD_CAT_ID   = 14820
ELEMENT_SET_NO = 999
REV_AT_EPOCH   = 24132
BSTAR          = .85261E-4
MEAN_MOTION_DOT = .77E-5
MEAN_MOTION_DDOT = 0

CCSDS_OMM_VERS = 2.0
CREATION_DATE  = 
ORIGINATOR     = 

OBJECT_NAME    = SL-8 R/B
OBJECT_ID      = 1985-006B
CENTER_NAME    = EARTH
REF_FRAME      = TEME
TIME_SYSTEM    = UTC
MEAN_ELEMENT_THEORY = SGP/SGP4

EPOCH          = 2026-01-26T08:44:17.357856
MEAN_MOTION    = 14.37758238
ECCENTRICITY   = .0019758
INCLINATION    = 74.0474
RA_OF_ASC_NODE = 339.0272
ARG_OF_PERICENTER = 264.3190
MEAN_ANOMALY   = 212.8585

EPHEMERIS_TYPE = 0
CLASSIFICATION_TYPE = U
NORAD_CAT_ID   = 15483
ELEMENT_SET_NO = 999
REV_AT_EPOCH   = 14794
BSTAR          = .18078E-3
MEAN_MOTION_DOT = .519E-5
MEAN_MOTION_DDOT = 0

CCSDS_OMM_VERS = 2.0
CREATION_DATE  = 
ORIGINATOR     = 

OBJECT_NAME    = SL-12 R/B(2)
OBJECT_ID      = 1985-042D
CENTER_NAME    = EARTH
REF_FRAME      = TEME
TIME_SYSTEM    = UTC
MEAN_ELEMENT_THEORY = SGP/SGP4

EPOCH          = 2026-01-26T10:01:10.944192
MEAN_MOTION    = 14.21968169
ECCENTRICITY   = .0035769
INCLINATION    = 71.1074
RA_OF_ASC_NODE = 177.0337
ARG_OF_PERICENTER = 194.9928
MEAN_ANOMALY   = 232.7310

EPHEMERIS_TYPE = 0
CLASSIFICATION_TYPE = U
NORAD_CAT_ID   = 15772
ELEMENT_SET_NO = 999
REV_AT_EPOCH   = 10838
BSTAR          = .10584E-3
MEAN_MOTION_DOT = .188E-5
MEAN_MOTION_DDOT = 0

CCSDS_OMM_VERS = 2.0
CREATION_DATE  = 
ORIGINATOR     = 

OBJECT_NAME    = SL-14 R/B
OBJECT_ID      = 1985-069B
CENTER_NAME    = EARTH
REF_FRAME      = TEME
TIME_SYSTEM    = UTC
MEAN_ELEMENT_THEORY = SGP/SGP4

EPOCH          = 2026-01-26T11:16:08.095296
MEAN_MOTION    = 14.86381515
ECCENTRICITY   = .0018116
INCLINATION    = 82.5244
RA_OF_ASC_NODE = 64.6450
ARG_OF_PERICENTER = 336.8242
MEAN_ANOMALY   = 23.2155

EPHEMERIS_TYPE = 0
CLASSIFICATION_TYPE = U
NORAD_CAT_ID   = 15945
ELEMENT_SET_NO = 999
REV_AT_EPOCH   = 16656
BSTAR          = .80858E-4
MEAN_MOTION_DOT = .739E-5
MEAN_MOTION_DDOT = 0

CCSDS_OMM_VERS = 2.0
CREATION_DATE  = 
ORIGINATOR     = 

OBJECT_NAME    = SL-16 R/B
OBJECT_ID      = 1985-097B
CENTER_NAME    = EARTH
REF_FRAME      = TEME
TIME_SYSTEM    = UTC
MEAN_ELEMENT_THEORY = SGP/SGP4

EPOCH          = 2026-01-26T00:01:16.781952
MEAN_MOTION    = 14.16591039
ECCENTRICITY   = .00090207
INCLINATION    = 71.0000
RA_OF_ASC_NODE = 230.4224
ARG_OF_PERICENTER = 310.0789
MEAN_ANOMALY   = 200.3133

EPHEMERIS_TYPE = 0
CLASSIFICATION_TYPE = U
NORAD_CAT_ID   = 16182
ELEMENT_SET_NO = 999
REV_AT_EPOCH   = 8118
BSTAR          = .54657653E-4
MEAN_MOTION_DOT = .61E-6
MEAN_MOTION_DDOT = 0

CCSDS_OMM_VERS = 2.0
CREATION_DATE  = 
ORIGINATOR     = 

OBJECT_NAME    = SL-14 R/B
OBJECT_ID      = 1986-006B
CENTER_NAME    = EARTH
REF_FRAME      = TEME
TIME_SYSTEM    = UTC
MEAN_ELEMENT_THEORY = SGP/SGP4

EPOCH          = 2026-01-26T04:31:18.282720
MEAN_MOTION    = 14.86747759
ECCENTRICITY   = .0077981
INCLINATION    = 82.5285
RA_OF_ASC_NODE = 299.7351
ARG_OF_PERICENTER = 54.2625
MEAN_ANOMALY   = 306.5812

EPHEMERIS_TYPE = 0
CLASSIFICATION_TYPE = U
NORAD_CAT_ID   = 16496
ELEMENT_SET_NO = 999
REV_AT_EPOCH   = 14289
BSTAR          = .13189E-3
MEAN_MOTION_DOT = .1268E-4
MEAN_MOTION_DDOT = 0

CCSDS_OMM_VERS = 2.0
CREATION_DATE  = 
ORIGINATOR     = 

OBJECT_NAME    = COSMOS 1743
OBJECT_ID      = 1986-034A
CENTER_NAME    = EARTH
REF_FRAME      = TEME
TIME_SYSTEM    = UTC
MEAN_ELEMENT_THEORY = SGP/SGP4

EPOCH          = 2026-01-26T06:55:24.074112
MEAN_MOTION    = 15.55379168
ECCENTRICITY   = .0005426
INCLINATION    = 82.5349
RA_OF_ASC_NODE = 118.2172
ARG_OF_PERICENTER = 91.1487
MEAN_ANOMALY   = 269.0389

EPHEMERIS_TYPE = 0
CLASSIFICATION_TYPE = U
NORAD_CAT_ID   = 16719
ELEMENT_SET_NO = 999
REV_AT_EPOCH   = 17365
BSTAR          = .6384E-3
MEAN_MOTION_DOT = .43605E-3
MEAN_MOTION_DDOT = 0

