SL-3 R/B                
1 13403U 82079B   26026.46244056  .00007336  00000+0  29762-3 0  9991
2 13403  81.1448 242.9214 0024525 310.9523  48.9587 15.24195159371266
SL-14 R/B               
1 13553U 82092B   26026.50973903  .00000956  00000+0  10454-3 0  9996
2 13553  82.5685 180.8396 0021851  81.8406 342.7347 14.86613589322662
SL-3 R/B                
1 13819U 83010B   26026.48502306  .00018276  00000+0  38635-3 0  9999
2 13819  81.1023  53.9390 0016850 188.8263 171.2688 15.44872346351426
SL-3 R/B                
1 14208U 83075B   26026.45827671  .00015949  00000+0  43496-3 0  9990
2 14208  97.6128  29.4832 0023100  25.8162 334.4229 15.37269058323661
COSMOS 1536             
1 14699U 84013A   26026.42264346  .00009940  00000+0  41731-3 0  9992
2 14699  82.5467 149.8324 0015680  73.5002 286.7956 15.23212804266185
SL-14 R/B               
1 14820U 84027B   26026.20260417  .00000770  00000+0  85261-4 0  9993
2 14820  82.5422 284.8657 0019408 112.1434 248.1845 14.85931852241328
SL-8 R/B                
1 15483U 85006B   26026.36408979  .00000519  00000+0  18078-3 0  9993
2 15483  74.0474 339.0272 0019758 264.3190 212.8585 14.37758238147944
SL-12 R/B(2)            
1 15772U 85042D   26026.41748778  .00000188  00000+0  10584-3 0  9990
2 15772  71.1074 177.0337 0035769 194.9928 232.7310 14.21968169108389
SL-14 R/B               
1 15945U 85069B   26026.46953814  .00000739  00000+0  80858-4 0  9999
2 15945  82.5244  64.6450 0018116 336.8242  23.2155 14.86381515166565
SL-16 R/B               
1 16182U 85097B   26026.00088868  .00000061  00000+0  54658-4 0  9999
2 16182  71.0000 230.4224 0009020 310.0789 200.3133 14.16591039 81183
SL-14 R/B               
1 16496U 86006B   26026.18840605  .00001268  00000+0  13189-3 0  9995
2 16496  82.5285 299.7351 0077981  54.2625 306.5812 14.86747759142897
COSMOS 1743             
1 16719U 86034A   26026.28847308  .00043605  00000+0  63840-3 0  9992
2 16719  82.5349 118.2172 0005426  91.1487 269.0389 15.55379168173655
